{"type": "FeatureCollection", "features": [ {"type": "Feature", "properties": {"norad_id": 28659, "name": "DIRECTV 8", "group": "intelsat", "lat": -0.004451807240089361, "lon": -143.54592901094546, "alt_km": 35778.195989735905, "timestamp": "2025-12-14T16:47:40.350590+00:00", "meta": {"OBJECT_NAME": "DIRECTV 8", "OBJECT_ID": "2005-019A", "EPOCH": "2025-12-13T21:26:37.129920", "MEAN_MOTION": 1.00272115, "ECCENTRICITY": 0.00029774, "INCLINATION": 0.0254, "RA_OF_ASC_NODE": 70.4656, "ARG_OF_PERICENTER": 198.1047, "MEAN_ANOMALY": 16.8611, "EPHEMERIS_TYPE": 0, "CLASSIFICATION_TYPE": "U", "NORAD_CAT_ID": 28659, "ELEMENT_SET_NO": 999, "REV_AT_EPOCH": 7521, "BSTAR": 0, "MEAN_MOTION_DOT": 1.7e-07, "MEAN_MOTION_DDOT": 0}, "tle": {"line1": "1 28659U 05019A   25347.89348530  .00000017  00000+0  00000+0 0  9992", "line2": "2 28659   0.0254  70.4656 0002977 198.1047  16.8611  1.00272115 75213"}}, "geometry": {"type": "Point", "coordinates": [-143.54592901094546, -0.004451807240089361]}}, {"type": "Feature", "properties": {"norad_id": 28702, "name": "GALAXY 28 (G-28)", "group": "intelsat", "lat": 0.681801539634241, "lon": -113.15679222417053, "alt_km": 35774.85982254965, "timestamp": "2025-12-14T16:47:40.350601+00:00", "meta": {"OBJECT_NAME": "GALAXY 28 (G-28)", "OBJECT_ID": "2005-022A", "EPOCH": "2025-12-13T21:35:13.805376", "MEAN_MOTION": 1.00271573, "ECCENTRICITY": 0.00028277, "INCLINATION": 2.8219, "RA_OF_ASC_NODE": 81.2684, "ARG_OF_PERICENTER": 185.7163, "MEAN_ANOMALY": 50.9597, "EPHEMERIS_TYPE": 0, "CLASSIFICATION_TYPE": "U", "NORAD_CAT_ID": 28702, "ELEMENT_SET_NO": 999, "REV_AT_EPOCH": 5011, "BSTAR": 0, "MEAN_MOTION_DOT": -1.72e-06, "MEAN_MOTION_DDOT": 0}, "tle": {"line1": "1 28702U 05022A   25347.89946534 -.00000172  00000+0  00000+0 0  9996", "line2": "2 28702   2.8219  81.2684 0002827 185.7163  50.9597  1.00271573 50110"}}, "geometry": {"type": "Point", "coordinates": [-113.15679222417053, 0.681801539634241]}}, {"type": "Feature", "properties": {"norad_id": 29236, "name": "GALAXY 16 (G-16)", "group": "intelsat", "lat": -0.010493883670660549, "lon": -123.50745412557538, "alt_km": 35777.33776530268, "timestamp": "2025-12-14T16:47:40.350613+00:00", "meta": {"OBJECT_NAME": "GALAXY 16 (G-16)", "OBJECT_ID": "2006-023A", "EPOCH": "2025-12-13T21:32:21.579936", "MEAN_MOTION": 1.00270493, "ECCENTRICITY": 0.00024622, "INCLINATION": 0.0213, "RA_OF_ASC_NODE": 81.9348, "ARG_OF_PERICENTER": 183.5106, "MEAN_ANOMALY": 41.4553, "EPHEMERIS_TYPE": 0, "CLASSIFICATION_TYPE": "U", "NORAD_CAT_ID": 29236, "ELEMENT_SET_NO": 999, "REV_AT_EPOCH": 7111, "BSTAR": 0, "MEAN_MOTION_DOT": 0, "MEAN_MOTION_DDOT": 0}, "tle": {"line1": "1 29236U 06023A   25347.89747199  .00000000  00000+0  00000+0 0  9996", "line2": "2 29236   0.0213  81.9348 0002462 183.5106  41.4553  1.00270493 71119"}}, "geometry": {"type": "Point", "coordinates": [-123.50745412557538, -0.010493883670660549]}}, {"type": "Feature", "properties": {"norad_id": 29494, "name": "DIRECTV 9S", "group": "intelsat", "lat": 0.9185791143011901, "lon": -125.6900047232544, "alt_km": 35775.36884154399, "timestamp": "2025-12-14T16:47:40.350624+00:00", "meta": {"OBJECT_NAME": "DIRECTV 9S", "OBJECT_ID": "2006-043A", "EPOCH": "2025-12-13T21:31:44.140224", "MEAN_MOTION": 1.00271915, "ECCENTRICITY": 0.00029492, "INCLINATION": 1.9433, "RA_OF_ASC_NODE": 83.1998, "ARG_OF_PERICENTER": 183.3226, "MEAN_ANOMALY": 38.0226, "EPHEMERIS_TYPE": 0, "CLASSIFICATION_TYPE": "U", "NORAD_CAT_ID": 29494, "ELEMENT_SET_NO": 999, "REV_AT_EPOCH": 4952, "BSTAR": 0, "MEAN_MOTION_DOT": -9.7e-07, "MEAN_MOTION_DDOT": 0}, "tle": {"line1": "1 29494U 06043A   25347.89703866 -.00000097  00000+0  00000+0 0  9994", "line2": "2 29494   1.9433  83.1998 0002949 183.3226  38.0226  1.00271915 49524"}}, "geometry": {"type": "Point", "coordinates": [-125.6900047232544, 0.9185791143011901]}}, {"type": "Feature", "properties": {"norad_id": 31307, "name": "GALAXY 17 (G-17)", "group": "intelsat", "lat": 0.486553836154479, "lon": -109.43711551684632, "alt_km": 35761.615763045666, "timestamp": "2025-12-14T16:47:40.350636+00:00", "meta": {"OBJECT_NAME": "GALAXY 17 (G-17)", "OBJECT_ID": "2007-016B", "EPOCH": "2025-12-13T21:36:21.197376", "MEAN_MOTION": 1.00272365, "ECCENTRICITY": 0.00057454, "INCLINATION": 2.5032, "RA_OF_ASC_NODE": 82.2731, "ARG_OF_PERICENTER": 165.4036, "MEAN_ANOMALY": 74.2587, "EPHEMERIS_TYPE": 0, "CLASSIFICATION_TYPE": "U", "NORAD_CAT_ID": 31307, "ELEMENT_SET_NO": 999, "REV_AT_EPOCH": 6794, "BSTAR": 0, "MEAN_MOTION_DOT": -1.91e-06, "MEAN_MOTION_DDOT": 0}, "tle": {"line1": "1 31307U 07016B   25347.90024534 -.00000191  00000+0  00000+0 0  9996", "line2": "2 31307   2.5032  82.2731 0005745 165.4036  74.2587  1.00272365 67942"}}, "geometry": {"type": "Point", "coordinates": [-109.43711551684632, 0.486553836154479]}}, {"type": "Feature", "properties": {"norad_id": 31862, "name": "DIRECTV 10", "group": "intelsat", "lat": 0.005378320441088248, "lon": -127.2638260758067, "alt_km": 35785.08529396943, "timestamp": "2025-12-14T16:47:40.350648+00:00", "meta": {"OBJECT_NAME": "DIRECTV 10", "OBJECT_ID": "2007-032A", "EPOCH": "2025-12-13T21:31:14.187072", "MEAN_MOTION": 1.0027114, "ECCENTRICITY": 3.035e-05, "INCLINATION": 0.015, "RA_OF_ASC_NODE": 168.8724, "ARG_OF_PERICENTER": 41.7911, "MEAN_ANOMALY": 92.1824, "EPHEMERIS_TYPE": 0, "CLASSIFICATION_TYPE": "U", "NORAD_CAT_ID": 31862, "ELEMENT_SET_NO": 999, "REV_AT_EPOCH": 4373, "BSTAR": 0, "MEAN_MOTION_DOT": -8.7e-07, "MEAN_MOTION_DDOT": 0}, "tle": {"line1": "1 31862U 07032A   25347.89669198 -.00000087  00000+0  00000+0 0  9993", "line2": "2 31862   0.0150 168.8724 0000303  41.7911  92.1824  1.00271140 43732"}}, "geometry": {"type": "Point", "coordinates": [-127.2638260758067, 0.005378320441088248]}}, {"type": "Feature", "properties": {"norad_id": 32253, "name": "INTELSAT 11 (IS-11)", "group": "intelsat", "lat": 2.8581056838675933, "lon": -167.4810326362888, "alt_km": 36110.26701850426, "timestamp": "2025-12-14T16:47:40.350660+00:00", "meta": {"OBJECT_NAME": "INTELSAT 11 (IS-11)", "OBJECT_ID": "2007-044B", "EPOCH": "2025-12-13T16:12:57.366144", "MEAN_MOTION": 0.99049109, "ECCENTRICITY": 0.00088089, "INCLINATION": 3.0828, "RA_OF_ASC_NODE": 80.9667, "ARG_OF_PERICENTER": 166.3622, "MEAN_ANOMALY": 300.0684, "EPHEMERIS_TYPE": 0, "CLASSIFICATION_TYPE": "U", "NORAD_CAT_ID": 32253, "ELEMENT_SET_NO": 999, "REV_AT_EPOCH": 6661, "BSTAR": 0, "MEAN_MOTION_DOT": 7.4e-07, "MEAN_MOTION_DDOT": 0}, "tle": {"line1": "1 32253U 07044B   25347.67566396  .00000074  00000+0  00000+0 0  9998", "line2": "2 32253   3.0828  80.9667 0008808 166.3622 300.0684  0.99049109 66615"}}, "geometry": {"type": "Point", "coordinates": [-167.4810326362888, 2.8581056838675933]}}, {"type": "Feature", "properties": {"norad_id": 32388, "name": "HORIZONS-2", "group": "intelsat", "lat": 0.024817377160399383, "lon": -98.29980110643986, "alt_km": 35766.708560415405, "timestamp": "2025-12-14T16:47:40.350672+00:00", "meta": {"OBJECT_NAME": "HORIZONS-2", "OBJECT_ID": "2007-063B", "EPOCH": "2025-12-13T21:39:35.885952", "MEAN_MOTION": 1.00269579, "ECCENTRICITY": 0.00048531, "INCLINATION": 2.1245, "RA_OF_ASC_NODE": 82.9496, "ARG_OF_PERICENTER": 191.1785, "MEAN_ANOMALY": 59.7918, "EPHEMERIS_TYPE": 0, "CLASSIFICATION_TYPE": "U", "NORAD_CAT_ID": 32388, "ELEMENT_SET_NO": 999, "REV_AT_EPOCH": 6595, "BSTAR": 0, "MEAN_MOTION_DOT": -2.37e-06, "MEAN_MOTION_DDOT": 0}, "tle": {"line1": "1 32388U 07063B   25347.90249868 -.00000237  00000+0  00000+0 0  9998", "line2": "2 32388   2.1245  82.9496 0004853 191.1785  59.7918  1.00269579 65953"}}, "geometry": {"type": "Point", "coordinates": [-98.29980110643986, 0.024817377160399383]}}, {"type": "Feature", "properties": {"norad_id": 32729, "name": "DIRECTV 11", "group": "intelsat", "lat": -0.005550941769135566, "lon": -123.60454173223405, "alt_km": 35784.312968367245, "timestamp": "2025-12-14T16:47:40.350684+00:00", "meta": {"OBJECT_NAME": "DIRECTV 11", "OBJECT_ID": "2008-013A", "EPOCH": "2025-12-13T21:32:14.091648", "MEAN_MOTION": 1.00287104, "ECCENTRICITY": 9.54e-05, "INCLINATION": 0.0261, "RA_OF_ASC_NODE": 168.7838, "ARG_OF_PERICENTER": 299.3899, "MEAN_ANOMALY": 198.5284, "EPHEMERIS_TYPE": 0, "CLASSIFICATION_TYPE": "U", "NORAD_CAT_ID": 32729, "ELEMENT_SET_NO": 999, "REV_AT_EPOCH": 4373, "BSTAR": 0, "MEAN_MOTION_DOT": -1.12e-06, "MEAN_MOTION_DDOT": 0}, "tle": {"line1": "1 32729U 08013A   25347.89738532 -.00000112  00000+0  00000+0 0  9994", "line2": "2 32729   0.0261 168.7838 0000954 299.3899 198.5284  1.00287104 43739"}}, "geometry": {"type": "Point", "coordinates": [-123.60454173223405, -0.005550941769135566]}}, {"type": "Feature", "properties": {"norad_id": 32951, "name": "GALAXY 18 (G-18)", "group": "intelsat", "lat": -0.032087460420062636, "lon": -147.52685518247307, "alt_km": 35779.75220354945, "timestamp": "2025-12-14T16:47:40.350696+00:00", "meta": {"OBJECT_NAME": "GALAXY 18 (G-18)", "OBJECT_ID": "2008-024A", "EPOCH": "2025-12-13T17:59:54.624192", "MEAN_MOTION": 1.00270681, "ECCENTRICITY": 0.0002857, "INCLINATION": 0.0211, "RA_OF_ASC_NODE": 346.7327, "ARG_OF_PERICENTER": 282.8549, "MEAN_ANOMALY": 320.0495, "EPHEMERIS_TYPE": 0, "CLASSIFICATION_TYPE": "U", "NORAD_CAT_ID": 32951, "ELEMENT_SET_NO": 999, "REV_AT_EPOCH": 4399, "BSTAR": 0, "MEAN_MOTION_DOT": 0, "MEAN_MOTION_DDOT": 0}, "tle": {"line1": "1 32951U 08024A   25347.74993778  .00000000  00000+0  00000+0 0  9997", "line2": "2 32951   0.0211 346.7327 0002857 282.8549 320.0495  1.00270681 43991"}}, "geometry": {"type": "Point", "coordinates": [-147.52685518247307, -0.032087460420062636]}}]}